*******************************************************************************
 Revised: July 31, 2013             Moon / (Earth)                          301
 
 GEOPHYSICAL DATA (updated 2018-Aug-15):
  Vol. mean radius, km  = 1737.53+-0.03    Mass, x10^22 kg       =    7.349
  Radius (gravity), km  = 1738.0           Surface emissivity    =    0.92
  Radius (IAU), km      = 1737.4           GM, km^3/s^2          = 4902.800066
  Density, g/cm^3       =    3.3437        GM 1-sigma, km^3/s^2  =  +-0.0001  
  V(1,0)                =   +0.21          Surface accel., m/s^2 =    1.62
  Earth/Moon mass ratio = 81.3005690769    Farside crust. thick. = ~80 - 90 km
  Mean crustal density  = 2.97+-.07 g/cm^3 Nearside crust. thick.= 58+-8 km 
  Heat flow, Apollo 15  = 3.1+-.6 mW/m^2   Mean angular diameter = 31'05.2"
  Heat flow, Apollo 17  = 2.2+-.5 mW/m^2   Sid. rot. rate, rad/s = 0.0000026617
  Geometric Albedo      = 0.12             Mean solar day        = 29.5306 d
  Obliquity to orbit    = 6.67 deg         Orbit period          = 27.321582 d
  Semi-major axis, a    = 384400 km        Eccentricity          = 0.05490
  Mean motion, rad/s    = 2.6616995x10^-6  Inclination           = 5.145 deg
  Apsidal period        = 3231.50 d        Nodal period          = 6798.38 d
                                 Perihelion  Aphelion    Mean
  Solar Constant (W/m^2)         1414+-7     1323+-7     1368+-7
  Maximum Planetary IR (W/m^2)   1314        1226        1268
  Minimum Planetary IR (W/m^2)      5.2         5.2         5.2
********************************************************************************


*******************************************************************************
Ephemeris / WWW_USER Mon Jun  8 11:26:02 2026 Pasadena, USA      / Horizons
*******************************************************************************
Target body name: Moon (301)                      {source: DE441}
Center body name: Earth (399)                     {source: DE441}
Center-site name: BODY CENTER
*******************************************************************************
Start time      : A.D. 2026-Apr-02 01:58:33.0000 TDB
Stop  time      : A.D. 2026-Apr-10 23:54:22.0000 TDB
Step-size       : 1 minutes
*******************************************************************************
Center geodetic : 0.0, 0.0, 0.0                   {E-lon(deg),Lat(deg),Alt(km)}
Center cylindric: 0.0, 0.0, 0.0                   {E-lon(deg),Dxy(km),Dz(km)}
Center radii    : 6378.137, 6378.137, 6356.752 km {Equator_a, b, pole_c}
Output units    : KM-S
Calendar mode   : Mixed Julian/Gregorian
Output type     : GEOMETRIC cartesian states
Output format   : 2 (position and velocity)
EOP file        : eop.260605.p260901
EOP coverage    : DATA-BASED 1962-JAN-20 TO 2026-JUN-05. PREDICTS-> 2026-AUG-31
Reference frame : Ecliptic of J2000.0
*******************************************************************************
            JDTDB,            Calendar Date (TDB),                      X,                      Y,                      Z,                     VX,                     VY,                     VZ,
**************************************************************************************************************************************************************************************************
$$SOE
2461137.942048611, A.D. 2026-Apr-07 10:36:33.0000, -9.054246457269523E+04, -3.930736694604221E+05, -3.595065684139787E+04,  9.424457136636935E-01, -2.171897037056759E-01,  1.400671305687660E-02,
2461137.942743056, A.D. 2026-Apr-07 10:37:33.0000, -9.048591687484454E+04, -3.930866965288803E+05, -3.594981604290556E+04,  9.424775446240578E-01, -2.170459107440955E-01,  1.401990330352967E-02,
2461137.943437500, A.D. 2026-Apr-07 10:38:33.0000, -9.042936726774863E+04, -3.930997149696128E+05, -3.594897445300751E+04,  9.425093551699425E-01, -2.169021128504653E-01,  1.403309324828672E-02,
2461137.944131944, A.D. 2026-Apr-07 10:39:33.0000, -9.037281575263244E+04, -3.931127247823237E+05, -3.594813207172183E+04,  9.425411453007840E-01, -2.167583100273417E-01,  1.404628289091088E-02,
2461137.944826389, A.D. 2026-Apr-07 10:40:33.0000, -9.031626233072087E+04, -3.931257259667175E+05, -3.594728889906663E+04,  9.425729150160203E-01, -2.166145022772813E-01,  1.405947223116531E-02,
2461137.945520833, A.D. 2026-Apr-07 10:41:33.0000, -9.025970700323884E+04, -3.931387185224985E+05, -3.594644493506016E+04,  9.426046643150885E-01, -2.164706896028405E-01,  1.407266126881326E-02,
2461137.946215278, A.D. 2026-Apr-07 10:42:33.0000, -9.020314977141139E+04, -3.931517024493715E+05, -3.594560017972044E+04,  9.426363931974259E-01, -2.163268720065757E-01,  1.408585000361787E-02,
2461137.946909722, A.D. 2026-Apr-07 10:43:33.0000, -9.014659063646349E+04, -3.931646777470409E+05, -3.594475463306575E+04,  9.426681016624706E-01, -2.161830494910434E-01,  1.409903843534240E-02,
2461137.947604167, A.D. 2026-Apr-07 10:44:33.0000, -9.009002959962025E+04, -3.931776444152120E+05, -3.594390829511426E+04,  9.426997897096610E-01, -2.160392220588001E-01,  1.411222656374995E-02,
2461137.948298611, A.D. 2026-Apr-07 10:45:33.0000, -9.003346666210670E+04, -3.931906024535896E+05, -3.594306116588420E+04,  9.427314573384343E-01, -2.158953897124024E-01,  1.412541438860389E-02,
2461137.948993056, A.D. 2026-Apr-07 10:46:33.0000, -8.997690182514802E+04, -3.932035518618792E+05, -3.594221324539371E+04,  9.427631045482301E-01, -2.157515524544067E-01,  1.413860190966729E-02,
2461137.949687500, A.D. 2026-Apr-07 10:47:33.0000, -8.992033508996930E+04, -3.932164926397860E+05, -3.594136453366111E+04,  9.427947313384861E-01, -2.156077102873697E-01,  1.415178912670347E-02,
2461137.950381944, A.D. 2026-Apr-07 10:48:33.0000, -8.986376645779579E+04, -3.932294247870156E+05, -3.594051503070458E+04,  9.428263377086417E-01, -2.154638632138478E-01,  1.416497603947559E-02,
2461137.951076389, A.D. 2026-Apr-07 10:49:33.0000, -8.980719592985269E+04, -3.932423483032736E+05, -3.593966473654247E+04,  9.428579236581354E-01, -2.153200112363975E-01,  1.417816264774696E-02,
2461137.951770833, A.D. 2026-Apr-07 10:50:33.0000, -8.975062350736525E+04, -3.932552631882658E+05, -3.593881365119293E+04,  9.428894891864067E-01, -2.151761543575754E-01,  1.419134895128080E-02,
2461137.952465278, A.D. 2026-Apr-07 10:51:33.0000, -8.969404919155876E+04, -3.932681694416985E+05, -3.593796177467439E+04,  9.429210342928948E-01, -2.150322925799383E-01,  1.420453494984039E-02,
2461137.953159722, A.D. 2026-Apr-07 10:52:33.0000, -8.963747298365855E+04, -3.932810670632776E+05, -3.593710910700509E+04,  9.429525589770394E-01, -2.148884259060425E-01,  1.421772064318891E-02,
2461137.953854166, A.D. 2026-Apr-07 10:53:33.0000, -8.958089488488996E+04, -3.932939560527094E+05, -3.593625564820334E+04,  9.429840632382805E-01, -2.147445543384449E-01,  1.423090603108969E-02,
2461137.954548611, A.D. 2026-Apr-07 10:54:33.0000, -8.952431489647842E+04, -3.933068364097003E+05, -3.593540139828747E+04,  9.430155470760577E-01, -2.146006778797018E-01,  1.424409111330599E-02,
2461137.955243056, A.D. 2026-Apr-07 10:55:33.0000, -8.946773301964933E+04, -3.933197081339572E+05, -3.593454635727583E+04,  9.430470104898117E-01, -2.144567965323701E-01,  1.425727588960107E-02,
2461137.955937500, A.D. 2026-Apr-07 10:56:33.0000, -8.941114925562814E+04, -3.933325712251865E+05, -3.593369052518686E+04,  9.430784534789821E-01, -2.143129102990063E-01,  1.427046035973827E-02,
2461137.956631945, A.D. 2026-Apr-07 10:57:33.0000, -8.935456360564035E+04, -3.933454256830954E+05, -3.593283390203881E+04,  9.431098760430102E-01, -2.141690191821671E-01,  1.428364452348077E-02,
2461137.957326389, A.D. 2026-Apr-07 10:58:33.0000, -8.929797607091151E+04, -3.933582715073908E+05, -3.593197648785016E+04,  9.431412781813364E-01, -2.140251231844093E-01,  1.429682838059197E-02,
2461137.958020833, A.D. 2026-Apr-07 10:59:33.0000, -8.924138665266712E+04, -3.933711086977799E+05, -3.593111828263925E+04,  9.431726598934019E-01, -2.138812223082893E-01,  1.431001193083510E-02,
2461137.958715278, A.D. 2026-Apr-07 11:00:33.0000, -8.918479535213282E+04, -3.933839372539702E+05, -3.593025928642461E+04,  9.432040211786477E-01, -2.137373165563641E-01,  1.432319517397357E-02,
2461137.959409722, A.D. 2026-Apr-07 11:01:33.0000, -8.912820217053423E+04, -3.933967571756692E+05, -3.592939949922453E+04,  9.432353620365155E-01, -2.135934059311902E-01,  1.433637810977059E-02,
2461137.960104167, A.D. 2026-Apr-07 11:02:33.0000, -8.907160710909699E+04, -3.934095684625845E+05, -3.592853892105757E+04,  9.432666824664462E-01, -2.134494904353243E-01,  1.434956073798951E-02,
2461137.960798611, A.D. 2026-Apr-07 11:03:33.0000, -8.901501016904683E+04, -3.934223711144241E+05, -3.592767755194215E+04,  9.432979824678823E-01, -2.133055700713234E-01,  1.436274305839369E-02,
2461137.961493055, A.D. 2026-Apr-07 11:04:33.0000, -8.895841135160944E+04, -3.934351651308959E+05, -3.592681539189673E+04,  9.433292620402650E-01, -2.131616448417439E-01,  1.437592507074643E-02,
2461137.962187500, A.D. 2026-Apr-07 11:05:33.0000, -8.890181065801058E+04, -3.934479505117079E+05, -3.592595244093979E+04,  9.433605211830376E-01, -2.130177147491429E-01,  1.438910677481110E-02,
2461137.962881945, A.D. 2026-Apr-07 11:06:33.0000, -8.884520808947607E+04, -3.934607272565686E+05, -3.592508869908995E+04,  9.433917598956413E-01, -2.128737797960769E-01,  1.440228817035104E-02,
2461137.963576389, A.D. 2026-Apr-07 11:07:33.0000, -8.878860364723172E+04, -3.934734953651862E+05, -3.592422416636554E+04,  9.434229781775192E-01, -2.127298399851028E-01,  1.441546925712957E-02,
2461137.964270833, A.D. 2026-Apr-07 11:08:33.0000, -8.873199733250339E+04, -3.934862548372696E+05, -3.592335884278524E+04,  9.434541760281139E-01, -2.125858953187774E-01,  1.442865003491008E-02,
2461137.964965278, A.D. 2026-Apr-07 11:09:33.0000, -8.867538914651699E+04, -3.934990056725274E+05, -3.592249272836759E+04,  9.434853534468687E-01, -2.124419457996576E-01,  1.444183050345595E-02,
